#dP2024  6 30 12  0  0.00000000      96 __u+U IGS20 EXT  IAC
## 2321  43200.00000000   900.00000000 60491 0.5000000000000
+   54   G02G03G04G05G06G07G08G09G10G11G12G13G14G15G16G17G18
+        G19G20G21G22G23G24G25G26G27G28G29G30G31G32R01R02R03
+        R04R05R07R08R09R11R12R13R14R15R16R17R18R19R20R21R22
+        R24R25R26  0  0  0  0  0  0  0  0  0  0  0  0  0  0
+          0  0  0  0  0  0  0  0  0  0  0  0  0  0  0  0  0
++         9  7  9  7  8  8  8  7  8  7  8  8  7  8  8  9  8
++         8  7  9  9  7  7  7  8 10  9  7  7  6  8  9  8  8
++         7  8  7  8  8  7  6  8  6  7  8  8  8  8  9  6  7
++         8  9 12  0  0  0  0  0  0  0  0  0  0  0  0  0  0
++         0  0  0  0  0  0  0  0  0  0  0  0  0  0  0  0  0
%c M  cc GPS ccc cccc cccc cccc cccc ccccc ccccc ccccc ccccc
%c cc cc ccc ccc cccc cccc cccc cccc ccccc ccccc ccccc ccccc
%f  0.0000000  0.000000000  0.00000000000  0.000000000000000
%f  0.0000000  0.000000000  0.00000000000  0.000000000000000
%i    0    0    0    0      0      0      0      0         0
%i    0    0    0    0      0      0      0      0         0
/* IAC                                ULTRA-RAPID PREDICTION
/* S/V CLOCKS ARE ALIGNED TO GNSS TIME                      
/* G:C1WC2W R:C1PC2P E:C1XC5X C:C2IC6I J:C1CC2S             
/* PCV:IGS20_2247 OL/AL:FES2004  NONE     YN ORB:CoN CLK:CoN
*  2024 07 01  3 30  0.00000000
PG02 -21369.162209 -13944.837896  -7434.575847   -407.643624
PG03 -12254.887096 -16224.578987  16992.947166    438.232798
PG04 -15995.166268  -6577.591773  20212.724408    394.494260
PG05   5616.902750  25627.753458  -4017.786567   -178.196004
PG06 -12285.310836   9619.715424  21571.636094    187.989849
PG07 -24470.093429  -4709.674475  -9302.941357    -79.696535
PG08  -6416.079634 -14246.713395 -21551.955575    254.585304
PG09 -22635.357808   4715.371362  13033.867593    255.533209
PG10  10792.209719 -16173.317042 -17732.280839    -55.109404
PG11   1969.336110  17112.305708  20257.379217   -696.365404
PG12  10462.279218  18929.512158  15167.835662   -518.580869
PG13  -3603.307347  17015.319274 -20214.893303    661.586050
PG14 -13423.787927  12259.287956 -19252.042189    438.210670
PG15   8324.251040  13888.615201 -21543.203180    176.087804
PG16   -335.658329 -26291.562571  -1362.779018   -249.283829
PG17 -22845.661531  13720.765162    546.786770    685.904680
PG18  23974.195530   4100.319233 -10900.312055   -631.493764
PG19 -18579.052499  16470.260253   8671.707591    504.045740
PG20   1325.663305  25729.492759   6832.437355    373.248144
PG21 -17971.820975 -15911.741353 -11990.142029    111.916940
PG22 -10187.799707  20141.278513 -13811.006493    -34.086000
PG23  14474.319952  -3487.662924 -21958.181860    263.164281
PG24  19558.420956  15461.383162 -10152.407188   -480.934372
PG25  14985.646921   8562.123262  19921.189151    498.026217
PG26   5753.359539 -22692.457548  12037.850230    127.900372
PG27   5374.540982 -18827.928133 -18037.798577    -29.923097
PG28  14449.940472  -9043.542703  20358.186771   -312.209201
PG29  21718.236771   -182.543596  15320.771698   -591.740263
PG30 -19318.363143   4864.956049 -17539.667854   -365.401191
PG31   3530.555734 -15170.020383  21257.245250   -227.078152
PG32  21048.499641 -15929.010644   1916.041253   -614.266625
PR01   3520.301338  13209.461393 -21531.846906     90.007950
PR02  13763.980458  -2214.866603 -21301.300141    -23.512921
PR03  16893.964212 -16838.988102  -8915.588870    103.048658
PR04  10947.544216 -21620.178862   7973.091724    243.483740
PR05   -941.585744 -14982.036957  20627.805872    133.915720
PR07 -16890.646814  17254.012582   8339.370144     85.695762
PR08 -10666.493298  21724.530914  -8048.586266     -5.469893
PR09 -15172.438455 -10674.891988 -17526.713754    195.205092
PR11    764.729847  19525.934180 -16369.491508     19.662744
PR12  11708.476511  22591.046028   1900.219400     41.937082
PR13  14950.263116  13253.010181  15852.018904    -48.860999
PR14   9176.372993  -6588.756323  22889.129981     26.658647
PR15  -1610.614942 -20482.425117  15150.026963     78.309257
PR16 -11684.682377 -22640.076191  -1609.309896     26.945701
PR17  20992.593650  -4401.238674 -13839.745020    100.621814
PR18   6157.583860  -9701.935507 -22757.989884    149.691810
PR19  -9742.327099 -10791.090816 -20962.326862   -282.256882
PR20 -24617.601661  -5305.164664  -4173.877520   -115.360327
PR21 -21196.489723   4022.918833  13576.985235   -113.779618
PR22  -5225.554620  10209.338878  22807.184767     95.420387
PR24  24937.434541   4048.831194   3614.866552    -61.997257
PR25 -20930.875150   3919.687647  14026.255720    -93.956728
PR26 -11261.580133  21829.498406  -6811.619028     -5.103347
*  2024 07 01  3 45  0.00000000
PG02 -20309.528309 -13785.258652 -10044.813395   -407.637215
PG03 -12300.209459 -18077.009198  15002.976759    438.248379
PG04 -14069.301110  -7938.954057  21124.046948    394.501398
PG05   5431.606059  25933.668984  -1154.895279   -178.197119
PG06 -14430.122833   8551.654417  20681.735999    187.970062
PG07 -25251.535074  -5332.644125  -6697.130537    -79.688665
PG08  -4454.922795 -15667.330462 -21013.929607    254.600778
PG09 -21453.626095   3580.352154  15195.435072    255.546575
PG10  11117.093851 -14031.384924 -19298.336485    -55.117552
PG11   -165.108348  16098.085324  21159.492422   -696.372080
PG12  10311.952378  20587.183374  13000.384769   -518.583649
PG13  -5607.065612  17931.643231 -18889.029919    661.588339
PG14 -13713.609315   9990.610628 -20345.422356    438.218782
PG15   6604.476600  15479.927432 -21019.224797    176.091645
PG16    -47.300020 -26249.239021   1521.630604   -249.274214
PG17 -22839.726973  13455.411036  -2312.895161    685.898721
PG18  24883.187364   4735.230599  -8319.358801   -631.497751
PG19 -19457.783162  16675.669287   5946.712046    504.050598
PG20    843.976944  24907.407304   9458.746973    373.247767
PG21 -16479.521871 -15549.138770 -14219.796475    111.914651
PG22 -10377.778190  18387.791613 -15871.460047    -34.090222
PG23  14796.467871   -991.925564 -22015.895373    263.172436
PG24  18313.662286  15293.884155 -12513.072097   -480.936228
PG25  15127.704153  10832.722255  18714.804731    498.026619
PG26   6315.203987 -21222.590037  14243.966498    127.894429
PG27   7034.092733 -19821.098936 -16250.792947    -29.924064
PG28  16498.755272  -8074.793620  19174.351239   -312.223926
PG29  20198.447197    907.858444  17236.245599   -591.738520
PG30 -20995.980710   3887.579500 -15808.075930   -365.395456
PG31   5798.279385 -14120.950723  21513.373740   -227.077914
PG32  21231.492115 -15732.870174   -954.119660   -614.265192
PR01   2228.071739  15436.721754 -20179.036398     90.008876
PR02  12218.337992      6.965084 -22337.055472    -23.513068
PR03  16072.026630 -15838.495186 -11794.250088    103.049241
PR04  11241.784874 -22372.947415   4872.047554    243.485012
PR05    342.832112 -17061.967560  18961.250619    133.916425
PR07 -16105.185813  16331.571867  11251.596427     85.696201
PR08 -10978.059504  22489.469864  -4961.671273     -5.470216
PR09 -16206.742627 -12418.985089 -15322.996909    195.206990
PR11   -149.310423  17574.386445 -18463.991817     19.661554
PR12  11841.798212  22559.588144  -1303.735766     41.937479
PR13  15882.267641  14801.781875  13384.298194    -48.861300
PR14  10485.543704  -4091.231597  22907.513056     26.658763
PR15   -777.224544 -18658.528654  17406.379276     78.308853
PR16 -11823.842424 -22570.376758   1602.798079     26.945891
PR17  22540.095696  -4470.477149 -11120.642725    100.624793
PR18   8915.581744  -9554.956711 -21887.079262    149.693496
PR19  -7100.319150 -10434.884478 -22170.240914   -282.258063
PR20 -23934.285936  -5015.415697  -7316.769121   -115.360812
PR21 -22714.000187   4087.796317  10823.331397   -113.782507
PR22  -7981.208363   9972.644017  22103.225265     95.415198
PR24  24310.109940   3859.778915   6745.757933    -61.998675
PR25 -22501.452860   3884.729556  11346.372960    -93.958844
PR26 -11481.018691  22462.005803  -3674.073970     -5.102574
EOF
